{"type": "FeatureCollection", "features": [ {"type": "Feature", "properties": {"norad_id": 36048, "name": "COSMOS 2251 DEB", "group": "cosmos-2251-debris", "lat": -67.1981250840817, "lon": 137.22390926209846, "alt_km": 765.2650834711185, "timestamp": "2025-12-26T06:43:29.908919+00:00", "meta": {"OBJECT_NAME": "COSMOS 2251 DEB", "OBJECT_ID": "1993-036AXK", "EPOCH": "2025-12-25T19:47:51.613152", "MEAN_MOTION": 14.37873513, "ECCENTRICITY": 0.00271039, "INCLINATION": 74.0571, "RA_OF_ASC_NODE": 275.2209, "ARG_OF_PERICENTER": 322.8373, "MEAN_ANOMALY": 95.0442, "EPHEMERIS_TYPE": 0, "CLASSIFICATION_TYPE": "U", "NORAD_CAT_ID": 36048, "ELEMENT_SET_NO": 999, "REV_AT_EPOCH": 85690, "BSTAR": 0.00026808417, "MEAN_MOTION_DOT": 7.86e-06, "MEAN_MOTION_DDOT": 0}, "tle": {"line1": "1 36048U 93036AXK 25359.82490293  .00000786  00000+0  26808-3 0  9990", "line2": "2 36048  74.0571 275.2209 0027103 322.8373  95.0442 14.37873513856909"}}, "geometry": {"type": "Point", "coordinates": [137.22390926209846, -67.1981250840817]}}, {"type": "Feature", "properties": {"norad_id": 36049, "name": "COSMOS 2251 DEB", "group": "cosmos-2251-debris", "lat": 67.30878742566995, "lon": -129.97546175858628, "alt_km": 676.9806053995708, "timestamp": "2025-12-26T06:43:29.908929+00:00", "meta": {"OBJECT_NAME": "COSMOS 2251 DEB", "OBJECT_ID": "1993-036AXL", "EPOCH": "2025-12-24T16:28:33.256992", "MEAN_MOTION": 14.62291602, "ECCENTRICITY": 0.00099539, "INCLINATION": 74.0314, "RA_OF_ASC_NODE": 96.2976, "ARG_OF_PERICENTER": 184.7355, "MEAN_ANOMALY": 175.3719, "EPHEMERIS_TYPE": 0, "CLASSIFICATION_TYPE": "U", "NORAD_CAT_ID": 36049, "ELEMENT_SET_NO": 999, "REV_AT_EPOCH": 85539, "BSTAR": 0.0013226671, "MEAN_MOTION_DOT": 6.656e-05, "MEAN_MOTION_DDOT": 0}, "tle": {"line1": "1 36049U 93036AXL 25358.68649603  .00006656  00000+0  13227-2 0  9997", "line2": "2 36049  74.0314  96.2976 0009953 184.7355 175.3719 14.62291602855397"}}, "geometry": {"type": "Point", "coordinates": [-129.97546175858628, 67.30878742566995]}}, {"type": "Feature", "properties": {"norad_id": 36050, "name": "COSMOS 2251 DEB", "group": "cosmos-2251-debris", "lat": -73.8160518381652, "lon": 85.79115488610532, "alt_km": 516.6252313709383, "timestamp": "2025-12-26T06:43:29.908940+00:00", "meta": {"OBJECT_NAME": "COSMOS 2251 DEB", "OBJECT_ID": "1993-036AXM", "EPOCH": "2025-12-23T18:20:06.375552", "MEAN_MOTION": 15.01191833, "ECCENTRICITY": 0.00883826, "INCLINATION": 74.0302, "RA_OF_ASC_NODE": 171.57, "ARG_OF_PERICENTER": 248.7055, "MEAN_ANOMALY": 110.468, "EPHEMERIS_TYPE": 0, "CLASSIFICATION_TYPE": "U", "NORAD_CAT_ID": 36050, "ELEMENT_SET_NO": 999, "REV_AT_EPOCH": 67200, "BSTAR": 0.00066513085, "MEAN_MOTION_DOT": 9.246e-05, "MEAN_MOTION_DDOT": 0}, "tle": {"line1": "1 36050U 93036AXM 25357.76396268  .00009246  00000+0  66513-3 0  9998", "line2": "2 36050  74.0302 171.5700 0088382 248.7055 110.4680 15.01191833672000"}}, "geometry": {"type": "Point", "coordinates": [85.79115488610532, -73.8160518381652]}}, {"type": "Feature", "properties": {"norad_id": 36053, "name": "COSMOS 2251 DEB", "group": "cosmos-2251-debris", "lat": -22.19131743489989, "lon": -46.518029058855426, "alt_km": 722.0190562071539, "timestamp": "2025-12-26T06:43:29.908950+00:00", "meta": {"OBJECT_NAME": "COSMOS 2251 DEB", "OBJECT_ID": "1993-036AXQ", "EPOCH": "2025-12-24T02:43:33.726720", "MEAN_MOTION": 14.57309353, "ECCENTRICITY": 0.00324773, "INCLINATION": 73.8708, "RA_OF_ASC_NODE": 130.8593, "ARG_OF_PERICENTER": 76.0407, "MEAN_ANOMALY": 284.4365, "EPHEMERIS_TYPE": 0, "CLASSIFICATION_TYPE": "U", "NORAD_CAT_ID": 36053, "ELEMENT_SET_NO": 999, "REV_AT_EPOCH": 87610, "BSTAR": 0.0014302573, "MEAN_MOTION_DOT": 6.496e-05, "MEAN_MOTION_DDOT": 0}, "tle": {"line1": "1 36053U 93036AXQ 25358.11358480  .00006496  00000+0  14303-2 0  9998", "line2": "2 36053  73.8708 130.8593 0032477  76.0407 284.4365 14.57309353876102"}}, "geometry": {"type": "Point", "coordinates": [-46.518029058855426, -22.19131743489989]}}, {"type": "Feature", "properties": {"norad_id": 36058, "name": "COSMOS 2251 DEB", "group": "cosmos-2251-debris", "lat": 37.77486844168748, "lon": 20.48440489453451, "alt_km": 698.7365917888901, "timestamp": "2025-12-26T06:43:29.908960+00:00", "meta": {"OBJECT_NAME": "COSMOS 2251 DEB", "OBJECT_ID": "1993-036AXV", "EPOCH": "2025-12-20T18:52:04.818432", "MEAN_MOTION": 14.58726339, "ECCENTRICITY": 0.00440828, "INCLINATION": 74.0229, "RA_OF_ASC_NODE": 18.1226, "ARG_OF_PERICENTER": 150.2394, "MEAN_ANOMALY": 210.1292, "EPHEMERIS_TYPE": 0, "CLASSIFICATION_TYPE": "U", "NORAD_CAT_ID": 36058, "ELEMENT_SET_NO": 999, "REV_AT_EPOCH": 66228, "BSTAR": 0.0002931852, "MEAN_MOTION_DOT": 1.357e-05, "MEAN_MOTION_DDOT": 0}, "tle": {"line1": "1 36058U 93036AXV 25354.78616688  .00001357  00000+0  29319-3 0  9994", "line2": "2 36058  74.0229  18.1226 0044082 150.2394 210.1292 14.58726339662289"}}, "geometry": {"type": "Point", "coordinates": [20.48440489453451, 37.77486844168748]}}, {"type": "Feature", "properties": {"norad_id": 36060, "name": "COSMOS 2251 DEB", "group": "cosmos-2251-debris", "lat": -27.92445890535223, "lon": 38.1878390404763, "alt_km": 758.3654967274178, "timestamp": "2025-12-26T06:43:29.908970+00:00", "meta": {"OBJECT_NAME": "COSMOS 2251 DEB", "OBJECT_ID": "1993-036AXX", "EPOCH": "2025-12-24T20:27:25.953408", "MEAN_MOTION": 14.42023746, "ECCENTRICITY": 0.0015617, "INCLINATION": 74.0276, "RA_OF_ASC_NODE": 212.1036, "ARG_OF_PERICENTER": 307.841, "MEAN_ANOMALY": 52.1332, "EPHEMERIS_TYPE": 0, "CLASSIFICATION_TYPE": "U", "NORAD_CAT_ID": 36060, "ELEMENT_SET_NO": 999, "REV_AT_EPOCH": 85184, "BSTAR": 0.00026955178, "MEAN_MOTION_DOT": 8.59e-06, "MEAN_MOTION_DDOT": 0}, "tle": {"line1": "1 36060U 93036AXX 25358.85238372  .00000859  00000+0  26955-3 0  9998", "line2": "2 36060  74.0276 212.1036 0015617 307.8410  52.1332 14.42023746851846"}}, "geometry": {"type": "Point", "coordinates": [38.1878390404763, -27.92445890535223]}}, {"type": "Feature", "properties": {"norad_id": 36061, "name": "COSMOS 2251 DEB", "group": "cosmos-2251-debris", "lat": -13.221601225279814, "lon": -28.882463943809363, "alt_km": 775.4188818017965, "timestamp": "2025-12-26T06:43:29.909005+00:00", "meta": {"OBJECT_NAME": "COSMOS 2251 DEB", "OBJECT_ID": "1993-036AXY", "EPOCH": "2025-12-23T15:09:10.673856", "MEAN_MOTION": 14.33725339, "ECCENTRICITY": 0.00369201, "INCLINATION": 74.0242, "RA_OF_ASC_NODE": 339.8232, "ARG_OF_PERICENTER": 64.3412, "MEAN_ANOMALY": 296.1546, "EPHEMERIS_TYPE": 0, "CLASSIFICATION_TYPE": "U", "NORAD_CAT_ID": 36061, "ELEMENT_SET_NO": 999, "REV_AT_EPOCH": 65260, "BSTAR": 0.00028137212, "MEAN_MOTION_DOT": 7.61e-06, "MEAN_MOTION_DDOT": 0}, "tle": {"line1": "1 36061U 93036AXY 25357.63137354  .00000761  00000+0  28137-3 0  9998", "line2": "2 36061  74.0242 339.8232 0036920  64.3412 296.1546 14.33725339652609"}}, "geometry": {"type": "Point", "coordinates": [-28.882463943809363, -13.221601225279814]}}, {"type": "Feature", "properties": {"norad_id": 36073, "name": "COSMOS 2251 DEB", "group": "cosmos-2251-debris", "lat": 34.482577387923705, "lon": 106.40213954811543, "alt_km": 786.0578245199067, "timestamp": "2025-12-26T06:43:29.909017+00:00", "meta": {"OBJECT_NAME": "COSMOS 2251 DEB", "OBJECT_ID": "1993-036AYL", "EPOCH": "2025-12-18T03:58:06.481920", "MEAN_MOTION": 14.34959898, "ECCENTRICITY": 0.00240895, "INCLINATION": 74.0326, "RA_OF_ASC_NODE": 312.6126, "ARG_OF_PERICENTER": 19.0207, "MEAN_ANOMALY": 341.1839, "EPHEMERIS_TYPE": 0, "CLASSIFICATION_TYPE": "U", "NORAD_CAT_ID": 36073, "ELEMENT_SET_NO": 999, "REV_AT_EPOCH": 70285, "BSTAR": 0.0001893667, "MEAN_MOTION_DOT": 5.14e-06, "MEAN_MOTION_DDOT": 0}, "tle": {"line1": "1 36073U 93036AYL 25352.16535280  .00000514  00000+0  18937-3 0  9997", "line2": "2 36073  74.0326 312.6126 0024089  19.0207 341.1839 14.34959898702857"}}, "geometry": {"type": "Point", "coordinates": [106.40213954811543, 34.482577387923705]}}, {"type": "Feature", "properties": {"norad_id": 36074, "name": "COSMOS 2251 DEB", "group": "cosmos-2251-debris", "lat": -10.280403750708963, "lon": -47.73860895729516, "alt_km": 732.0587828048856, "timestamp": "2025-12-26T06:43:29.909027+00:00", "meta": {"OBJECT_NAME": "COSMOS 2251 DEB", "OBJECT_ID": "1993-036AYM", "EPOCH": "2025-12-22T22:57:11.517120", "MEAN_MOTION": 14.43796912, "ECCENTRICITY": 0.0041956, "INCLINATION": 73.994, "RA_OF_ASC_NODE": 321.4388, "ARG_OF_PERICENTER": 50.2945, "MEAN_ANOMALY": 310.1898, "EPHEMERIS_TYPE": 0, "CLASSIFICATION_TYPE": "U", "NORAD_CAT_ID": 36074, "ELEMENT_SET_NO": 999, "REV_AT_EPOCH": 86057, "BSTAR": 0.001160749, "MEAN_MOTION_DOT": 3.969e-05, "MEAN_MOTION_DDOT": 0}, "tle": {"line1": "1 36074U 93036AYM 25356.95638330  .00003969  00000+0  11607-2 0  9992", "line2": "2 36074  73.9940 321.4388 0041956  50.2945 310.1898 14.43796912860575"}}, "geometry": {"type": "Point", "coordinates": [-47.73860895729516, -10.280403750708963]}}, {"type": "Feature", "properties": {"norad_id": 36366, "name": "COSMOS 2251 DEB", "group": "cosmos-2251-debris", "lat": 37.44713633158547, "lon": 55.71695024824526, "alt_km": 820.7278832018019, "timestamp": "2025-12-26T06:43:29.909037+00:00", "meta": {"OBJECT_NAME": "COSMOS 2251 DEB", "OBJECT_ID": "1993-036AYT", "EPOCH": "2025-12-21T17:11:32.767008", "MEAN_MOTION": 14.33460542, "ECCENTRICITY": 0.00902396, "INCLINATION": 74.0657, "RA_OF_ASC_NODE": 256.6822, "ARG_OF_PERICENTER": 283.124, "MEAN_ANOMALY": 75.9853, "EPHEMERIS_TYPE": 0, "CLASSIFICATION_TYPE": "U", "NORAD_CAT_ID": 36366, "ELEMENT_SET_NO": 999, "REV_AT_EPOCH": 86417, "BSTAR": 0.0010533139, "MEAN_MOTION_DOT": 3.019e-05, "MEAN_MOTION_DDOT": 0}, "tle": {"line1": "1 36366U 93036AYT 25355.71635147  .00003019  00000+0  10533-2 0  9995", "line2": "2 36366  74.0657 256.6822 0090239 283.1240  75.9853 14.33460542864174"}}, "geometry": {"type": "Point", "coordinates": [55.71695024824526, 37.44713633158547]}}]}